C/2016 Q4 (Kowalski),e,7.2363,271.2769,100.0297,17.05266,0.0139964,0.58219679,39.7683,11/12.0/2025,2000,g  7.0,4.0
# From MPEC 2021-N06
C/2016 R2 (PANSTARRS),e,58.3870,80.4702,33.1691,569.3454,0.0000726,0.99544371,0.0000,05/11.8569/2018,2000,g  7.0,4.0
# From MPEC 2022-K19
P/2016 R4 (Gibbs),e,10.8616,168.2591,174.0796,5.339004,0.0798939,0.47454248,271.8279,11/12.0/2025,2000,g 12.5,4.0
# From MPEC 2021-P47
C/2016 X1 (Lemmon),e,26.4679,256.3044,224.6446,3267,0.0000053,0.99768487,0.0000,05/01.4046/2019,2000,g  6.0,4.0
# From MPC114598
C/2017 AB5 (PANSTARRS),h,02/19.4537/2018,32.4468,42.6202,78.3830,1.000236,9.210138,2000,5.5,4.0
# From MPEC 2022-OB6
C/2017 B3 (LINEAR),e,54.2407,2.2689,284.7286,2886,0.0000064,0.99863777,0.0000,01/29.8525/2019,2000,g  6.0,4.0
# From MPC103847
P/2017 B4 (PANSTARRS),e,20.0584,121.4578,11.0197,4.410520,0.1064068,0.36495152,359.9130,01/05.0/2017,2000,g 14.5,4.0
# From MPEC 2022-OB6
P/2017 D1 (Fuls),e,20.7713,82.1876,8.1192,4.820800,0.0931162,0.43780576,318.5593,11/12.0/2025,2000,g 14.0,4.0
# From MPEC 2022-O08
C/2017 E3 (PANSTARRS),h,06/06.6806/2017,70.6674,220.7747,334.1546,1.004252,5.901909,2000,6.5,4.0
# From MPC114598
C/2017 F2 (PANSTARRS),h,11/26.3192/2017,42.5436,38.6262,134.7765,1.001757,6.900320,2000,7.5,4.0
# From MPC184408
P/2017 FL36 (PANSTARRS),e,15.6871,313.4465,90.3997,2.927529,0.1967670,0.03297391,18.5893,11/12.0/2025,2000,g 14.7,4.0
# From MPC115882
C/2017 K1 (PANSTARRS),e,154.0249,225.6581,4.1624,23876,0.0000003,0.99969577,0.0000,03/12.9597/2018,2000,g  7.0,4.0
# From MPEC 2025-V36
C/2017 K2 (PANSTARRS),e,87.6384,88.2216,236.1583,1352,0.0000198,0.99866821,0.0000,12/18.2300/2022,2000,g  1.5,4.0
# From MPEC 2021-P47
C/2017 K5 (PANSTARRS),h,03/25.0289/2020,82.2801,102.4612,171.9016,1.002591,7.674127,2000,5.0,4.0
# From MPEC 2022-OB6
C/2017 M4 (ATLAS),h,01/17.4983/2019,105.6332,65.9993,167.3741,1.000003,3.233315,2000,6.0,4.0
# From MPC118841
C/2017 M5 (TOTAS),h,05/31.0713/2018,15.8686,216.3074,92.8011,1.002222,6.010394,2000,6.5,4.0
# From MPC114599
P/2017 P1 (PANSTARRS),e,7.6880,221.4704,122.7279,7.920331,0.0442170,0.30868087,119.6016,11/12.0/2025,2000,g 10.0,4.0
# From MPEC 2020-SI8
C/2017 S7 (Lemmon),e,124.2307,262.6469,187.7315,27034,0.0000002,0.99971742,0.0000,05/25.3141/2017,2000,g  7.0,4.0
# From MPEC 2022-OB6
P/2017 S8 (PANSTARRS),e,29.8410,191.4985,254.9420,2.778445,0.2128146,0.39115594,245.3900,11/12.0/2025,2000,g 16.0,4.0
# From MPEC 2024-A43
C/2017 T2 (PANSTARRS),e,57.2745,64.4197,92.7722,1665,0.0000145,0.99903786,0.0000,05/06.4029/2020,2000,g  5.0,4.0
# From MPC115882
P/2017 TW13 (Lemmon),e,44.8893,322.0982,120.0483,7.138526,0.0516763,0.71054745,139.4268,11/12.0/2025,2000,g 15.0,2.0
# From MPEC 2022-K19
P/2017 U3 (PANSTARRS),e,15.9246,165.0501,296.5569,4.918832,0.0903464,0.10093221,216.7470,11/12.0/2025,2000,g 11.0,4.0
# From MPEC 2023-CD7
C/2017 U4 (PANSTARRS),e,158.2024,245.9226,159.2075,9396,0.0000011,0.99917502,0.0000,09/22.1846/2018,2000,g  7.0,4.0
# From MPEC 2023-A50
C/2017 U7 (PANSTARRS),h,09/16.2013/2019,142.6400,276.3226,326.3869,1.002628,6.415470,2000,8.3,2.0
# From MPC114601
P/2017 W3 (Gibbs),e,18.1937,210.0432,327.7812,7.817058,0.0450961,0.50728763,126.9354,11/12.0/2025,2000,g 10.5,4.0
# From MPEC 2024-JU4
C/2018 A6 (Gibbs),e,77.1802,340.4776,264.2467,14.99294,0.0169775,0.79888557,39.3302,11/12.0/2025,2000,g  9.0,4.0
# From MPC114602
P/2018 H2 (PANSTARRS),e,7.4130,67.9878,119.0847,4.413678,0.1062926,0.53977044,307.7962,11/12.0/2025,2000,g 16.6,2.0
# From MPEC 2021-R75
C/2018 KJ3 (Lemmon),e,136.6196,91.6958,217.5119,657.6468,0.0000584,0.99450061,0.0000,09/08.2317/2019,2000,g 12.2,2.0
# From MPEC 2022-YN2
C/2018 N2 (ASASSN),h,11/12.0956/2019,77.4699,24.5414,25.3366,1.002087,3.136805,2000,6.0,4.0
# From MPC114603
P/2018 P4 (PANSTARRS),e,23.0712,353.1613,8.5150,6.697102,0.0568688,0.44870591,145.7603,11/12.0/2025,2000,g 12.0,4.0
# From MPEC 2022-QC6
C/2018 S2 (TESS),e,64.1115,85.1087,290.9747,14.36902,0.0180952,0.61756751,46.4022,11/12.0/2025,2000,g  7.5,4.0
# From MPEC 2023-D54
C/2018 S3 (TESS),e,78.3785,25.0483,263.9050,34799,0.0000002,0.99976959,0.0000,06/24.3699/2016,2000,g  6.0,4.0
# From MPC184408
C/2018 U1 (Lemmon),e,108.3262,75.5097,180.3194,22387,0.0000003,0.99977737,0.0000,11/01.8624/2021,2000,g  5.0,4.0
# From MPC181178
P/2018 VN2 (Leonard),e,18.2557,226.4343,138.9289,4.060775,0.1204455,0.47806005,326.6643,11/12.0/2025,2000,g 15.0,4.0
# From MPEC 2023-M14
A/2018 W3,e,104.8348,251.6818,313.8325,690.0983,0.0000544,0.99379899,0.0000,04/13.1945/2021,2000,g 10.5,2.0
# From MPC114605
P/2018 Y2 (Africano),e,11.6968,297.1096,162.4257,7.458899,0.0483829,0.47998907,121.0983,11/12.0/2025,2000,g 11.5,4.0
# From MPEC 2021-P47
P/2019 A2 (ATLAS),e,14.8762,139.3589,323.9890,5.710211,0.0722314,0.38334605,183.7487,11/12.0/2025,2000,g 10.5,4.0
# From MPEC 2022-M21
P/2019 A3 (PANSTARRS),e,15.3551,31.2018,325.5852,3.144146,0.1767869,0.26799480,109.4936,11/12.0/2025,2000,g 16.0,4.0
# From MPEC 2022-L66
P/2019 A4 (PANSTARRS),e,13.3064,119.3540,343.3067,2.614226,0.2331790,0.08749281,229.1715,11/12.0/2025,2000,g 15.0,4.0
# From MPEC 2021-P47
C/2019 A5 (PANSTARRS),e,67.5539,146.4965,355.8608,21.52047,0.0098725,0.70658617,23.1966,11/12.0/2025,2000,g  9.5,4.0
# From MPC115885
P/2019 B2 (Groeller),e,16.9473,175.6137,0.5140,3.931538,0.1264330,0.35769973,300.7040,11/12.0/2025,2000,g 14.5,4.0
# From MPEC 2024-JU4
C/2019 B3 (PANSTARRS),e,66.6197,358.3986,263.9998,3253,0.0000053,0.99790050,0.0000,01/19.3780/2021,2000,g  5.5,4.0
# From MPEC 2025-UQ3
C/2019 E3 (ATLAS),e,84.3219,347.1862,280.7228,5874,0.0000022,0.99824431,0.0000,11/15.7208/2023,2000,g  2.5,4.0
# From MPEC 2024-GJ3
C/2019 F1 (ATLAS-Africano),h,06/20.8813/2021,54.2670,38.6656,251.2832,1.000021,3.607686,2000,5.5,4.0
# From MPC114607
P/2019 GG21 (PANSTARRS),e,6.0814,340.5660,208.5874,7.468503,0.0482896,0.47168573,114.8468,11/12.0/2025,2000,g 12.0,4.0
# From MPEC 2024-GJ3
C/2019 K7 (Smith),h,06/16.8327/2020,103.4676,308.0454,27.3332,1.000056,4.472655,2000,6.0,4.0
# From MPEC 2024-GJ3
P/2019 LD2 (ATLAS),e,11.6437,178.2921,116.1663,5.158119,0.0841331,0.13327317,178.1152,11/12.0/2025,2000,g  8.5,4.0
# From MPC185656
C/2019 L3 (ATLAS),h,01/10.1978/2022,48.3469,290.7106,171.7822,1.003335,3.560464,2000,4.5,4.0
# From MPC181179
P/2019 LM4 (Palomar),e,36.4137,72.8804,68.2196,5.701680,0.0723935,0.58638002,169.1303,11/12.0/2025,2000,g  9.5,4.0
# From MPEC 2023-JA2
C/2019 M4 (TESS),e,65.6998,52.6381,260.3285,70361,0.0000001,0.99986938,0.0000,09/08.9480/2019,2000,g  5.0,4.0
# From MPEC 2023-C45
C/2019 N1 (ATLAS),e,82.5642,13.4959,193.3397,946.2259,0.0000339,0.99820040,0.0000,11/30.4429/2020,2000,g  7.5,4.0
# From MPEC 2023-CD8
A/2019 N2,e,89.3187,276.2271,347.0376,1066,0.0000283,0.99818236,0.0000,08/22.3539/2019,2000,g 12.5,2.0
# From MPEC 2022-A21
C/2019 NJ3 (Lemmon),h,10/21.9549/2020,99.3207,142.4932,246.8633,1.001210,4.362958,2000,9.0,4.0
# From MPC185656
C/2019 O2 (PANSTARRS),e,93.2920,48.2647,129.5671,58.81772,0.0021850,0.83541707,2.0780,11/12.0/2025,2000,g  5.0,4.0
# From MPC182878
C/2019 O3 (Palomar),h,03/07.8956/2021,89.7922,300.4815,60.0867,1.002172,8.820397,2000,3.5,4.0
# From MPEC 2024-EF7
C/2019 Q1 (Lemmon),h,07/22.4168/2020,155.7155,42.4718,56.2477,1.002505,5.000972,2000,8.5,4.0
# From MPC117072
C/2019 Q3 (PANSTARRS),h,08/19.2753/2018,65.5858,151.4541,152.6908,1.000841,7.265437,2000,8.5,4.0
# From MPC117072
P/2019 S2 (PANSTARRS),e,10.4636,93.1793,216.8821,4.747983,0.0952665,0.20467282,234.5432,11/12.0/2025,2000,g 13.5,4.0
# From MPEC 2022-CN4
P/2019 S3 (PANSTARRS),e,8.6944,150.1400,213.1018,3.413763,0.1562622,0.47065168,354.1899,11/12.0/2025,2000,g 18.3,4.0
# From MPEC 2023-N01
A/2019 T1,e,120.8061,6.9229,90.9603,38.70670,0.0040928,0.88959082,7.2123,11/12.0/2025,2000,g 13.0,2.0
# From MPEC 2023-R20
C/2019 T2 (Lemmon),e,111.3516,155.6525,239.3739,2954,0.0000061,0.99910523,0.0000,04/22.3677/2021,2000,g  9.0,4.0
# From MPEC 2023-UR6
C/2019 T3 (ATLAS),e,121.8835,139.5481,112.4930,5395,0.0000025,0.99889645,0.0000,03/04.9170/2021,2000,g  6.8,4.0
# From MPC188408
C/2019 T4 (ATLAS),e,53.6244,199.8872,351.1099,887.0542,0.0000373,0.99522373,0.0000,06/08.7092/2022,2000,g  5.0,4.0
# From MPC118096
P/2019 U4 (PANSTARRS),e,11.6955,199.9963,181.0947,3.518245,0.1493534,0.47566526,334.9759,11/12.0/2025,2000,g 19.0,4.0
# From MPEC 2025-V36
C/2019 U5 (PANSTARRS),h,03/29.3454/2023,113.5138,2.6025,181.4452,1.000010,3.624600,2000,4.5,4.0
# From MPEC 2022-L66
P/2019 V2 (Groeller),e,11.8073,189.1239,335.6467,7.494935,0.0480344,0.33204629,88.9290,11/12.0/2025,2000,g 10.0,4.0
# From MPEC 2023-A50
P/2019 W1 (PANSTARRS),e,23.4644,35.3540,18.9153,4.548408,0.1016050,0.26712234,241.3675,11/12.0/2025,2000,g 12.9,4.0
# From MPEC 2021-P47
P/2019 X1 (Pruyne),e,10.2438,43.6739,37.0303,6.180563,0.0641449,0.30370651,147.6633,11/12.0/2025,2000,g 10.4,4.0
# From MPEC 2020-C98
P/2019 X2 (Pan-STARRS),e,15.8947,250.8259,213.5399,3.633459,0.1423061,0.50050929,307.5885,11/12.0/2025,2000,g 18.0,4.0
# From MPEC 2023-A50
C/2020 A3 (ATLAS),e,146.6159,120.7964,268.2222,3818,0.0000042,0.99849296,0.0000,06/26.3001/2019,2000,g  8.0,4.0
# From MPEC 2023-KD6
P/2020 B4 (Sheppard),e,11.6020,185.9383,342.0980,7.975153,0.0437618,0.19308628,63.5820,11/12.0/2025,2000,g 10.5,4.0
# From MPC186629
C/2020 F2 (ATLAS),h,07/12.1584/2022,163.5898,250.2976,48.2263,1.001983,8.813602,2000,4.5,4.0
# From MPEC 2024-UQ8
C/2020 F5 (MASTER),e,52.2394,350.5565,310.5898,162.8672,0.0004742,0.97344312,0.0000,03/15.9708/2021,2000,g  6.5,3.2
# From MPEC 2024-A43
C/2020 F7 (Lemmon),e,93.9903,321.8153,227.9981,583.0790,0.0000700,0.99084888,0.0000,11/14.0335/2021,2000,g  7.0,4.0
# From MPC184409
C/2020 H5 (Robinson),e,70.2192,210.6081,326.2634,6579,0.0000018,0.99858122,0.0000,12/10.0126/2020,2000,g  5.0,4.0
# From MPEC 2024-JU4
C/2020 H6 (ATLAS),e,79.9955,213.6800,20.1795,1842,0.0000125,0.99745120,0.0000,09/29.4318/2021,2000,g  8.0,3.2
# From MPEC 2023-HN7
C/2020 H11 (PANSTARRS-Lemmon),e,151.3701,303.0581,91.3536,9769,0.0000010,0.99921985,0.0000,09/11.9998/2020,2000,g  8.5,4.0
# From MPEC 2023-KD6
